[{"OBJECT_NAME":"STARLINK-4780","OBJECT_ID":"2022-114AG","EPOCH":"2026-03-09T22:38:19.287456","MEAN_MOTION":15.08838121,"ECCENTRICITY":0.00013847,"INCLINATION":53.2179,"RA_OF_ASC_NODE":292.7207,"ARG_OF_PERICENTER":78.176,"MEAN_ANOMALY":281.9388,"EPHEMERIS_TYPE":0,"CLASSIFICATION_TYPE":"U","NORAD_CAT_ID":53848,"ELEMENT_SET_NO":999,"REV_AT_EPOCH":19301,"BSTAR":1.4693641e-5,"MEAN_MOTION_DOT":-5.4e-7,"MEAN_MOTION_DDOT":0},{"OBJECT_NAME":"SEDNA-2","OBJECT_ID":"2025-009DQ","EPOCH":"2026-03-09T19:10:28.282944","MEAN_MOTION":15.10492622,"ECCENTRICITY":0.0010309,"INCLINATION":97.4615,"RA_OF_ASC_NODE":144.8075,"ARG_OF_PERICENTER":53.026,"MEAN_ANOMALY":307.1912,"EPHEMERIS_TYPE":0,"CLASSIFICATION_TYPE":"U","NORAD_CAT_ID":63153,"ELEMENT_SET_NO":999,"REV_AT_EPOCH":6311,"BSTAR":0.00049393403,"MEAN_MOTION_DOT":8.085e-5,"MEAN_MOTION_DDOT":0}]
